<?xml version="1.0" encoding="UTF-8"?>
<osm version="0.6" generator="Afribit Africa Merchant Directory v2.0">
  <node lat="-1.31621917" lon="36.77600587">
    <tag k="name" v="3 West Hotel"/>
    <tag k="shop" v="general"/>
    <tag k="addr:full" v="Soweto"/>
    <tag k="addr:city" v="Nairobi"/>
    <tag k="addr:suburb" v="Kibera"/>
    <tag k="addr:country" v="KE"/>
    <tag k="description" v="3 West Hotel is a local business located in Kibera, Nairobi. This business accepts Bitcoin Lightning Network and Bitcoin on-chain payments. Lightning payments: threewesthotel@blink.sv. Verified and registered through Afribit Africa - empowering Kibera businesses with Bitcoin. Part of the Afribit Kibera Merchant Directory."/>
    <tag k="contact:email" v="edmundspira@gmail.com"/>
    <tag k="payment:bitcoin" v="yes"/>
    <tag k="payment:lightning" v="yes"/>
    <tag k="payment:onchain" v="yes"/>
    <tag k="payment:lightning_contactless" v="no"/>
    <tag k="currency:XBT" v="yes"/>
    <tag k="source" v="Afribit Africa Merchant Directory"/>
    <tag k="source:ref" v="afribit:11df6cca-62b1-4829-b2bb-26c505718b13"/>
    <tag k="operator" v="Three West Hotel"/>
    <tag k="operator:type" v="private"/>
    <tag k="afribit:verified" v="yes"/>
    <tag k="afribit:directory" v="kibera"/>
    <tag k="afribit:merchant_id" v="11df6cca-62b1-4829-b2bb-26c505718b13"/>
    <tag k="afribit:registration_date" v="2025-12-07"/>
    <tag k="payment:lightning:address" v="threewesthotel@blink.sv"/>
    <tag k="contact:lightning" v="threewesthotel@blink.sv"/>
  </node>
</osm>