<?xml version="1.0" encoding="UTF-8"?>
<osm version="0.6" generator="Afribit Africa Merchant Directory v2.0">
  <node lat="-1.31626980" lon="36.77615142">
    <tag k="name" v="Bridgeway Shop"/>
    <tag k="shop" v="general"/>
    <tag k="addr:full" v="Soweto"/>
    <tag k="addr:city" v="Nairobi"/>
    <tag k="addr:suburb" v="Kibera"/>
    <tag k="addr:country" v="KE"/>
    <tag k="description" v="Bridgeway Shop is a local business located in Kibera, Nairobi. This business accepts Bitcoin Lightning Network and Bitcoin on-chain payments. Lightning payments: bridgwayshop@blink.sv. Verified and registered through Afribit Africa - empowering Kibera businesses with Bitcoin. Part of the Afribit Kibera Merchant Directory."/>
    <tag k="contact:email" v="edmundspira@gmail.com"/>
    <tag k="payment:bitcoin" v="yes"/>
    <tag k="payment:lightning" v="yes"/>
    <tag k="payment:onchain" v="yes"/>
    <tag k="payment:lightning_contactless" v="no"/>
    <tag k="currency:XBT" v="yes"/>
    <tag k="source" v="Afribit Africa Merchant Directory"/>
    <tag k="source:ref" v="afribit:e5ea4ee2-1e5d-4abe-86ac-8f21d3f14735"/>
    <tag k="operator" v="Neema"/>
    <tag k="operator:type" v="private"/>
    <tag k="afribit:verified" v="yes"/>
    <tag k="afribit:directory" v="kibera"/>
    <tag k="afribit:merchant_id" v="e5ea4ee2-1e5d-4abe-86ac-8f21d3f14735"/>
    <tag k="afribit:registration_date" v="2025-12-07"/>
    <tag k="payment:lightning:address" v="bridgwayshop@blink.sv"/>
    <tag k="contact:lightning" v="bridgwayshop@blink.sv"/>
  </node>
</osm>