<?xml version="1.0" encoding="UTF-8"?>
<osm version="0.6" generator="Afribit Africa Merchant Directory v2.0">
  <node lat="-1.31595972" lon="36.77574743">
    <tag k="name" v="Shibe"/>
    <tag k="shop" v="general"/>
    <tag k="addr:full" v="Soweto"/>
    <tag k="addr:city" v="Nairobi"/>
    <tag k="addr:suburb" v="Kibera"/>
    <tag k="addr:country" v="KE"/>
    <tag k="description" v="Shibe is a local business located in Kibera, Nairobi. This business accepts Bitcoin Lightning Network and Bitcoin on-chain payments. Lightning payments: shibe@blink.sv. Verified and registered through Afribit Africa - empowering Kibera businesses with Bitcoin. Part of the Afribit Kibera Merchant Directory."/>
    <tag k="contact:email" v="edmundspira@gmail.com"/>
    <tag k="payment:bitcoin" v="yes"/>
    <tag k="payment:lightning" v="yes"/>
    <tag k="payment:onchain" v="yes"/>
    <tag k="payment:lightning_contactless" v="no"/>
    <tag k="currency:XBT" v="yes"/>
    <tag k="source" v="Afribit Africa Merchant Directory"/>
    <tag k="source:ref" v="afribit:1bed6f3d-c9a3-4673-961c-c13f4c230e64"/>
    <tag k="operator" v="Shibe Posho mill"/>
    <tag k="operator:type" v="private"/>
    <tag k="afribit:verified" v="yes"/>
    <tag k="afribit:directory" v="kibera"/>
    <tag k="afribit:merchant_id" v="1bed6f3d-c9a3-4673-961c-c13f4c230e64"/>
    <tag k="afribit:registration_date" v="2025-12-07"/>
    <tag k="payment:lightning:address" v="shibe@blink.sv"/>
    <tag k="contact:lightning" v="shibe@blink.sv"/>
  </node>
</osm>